[{"OBJECT_NAME":"SITRO-AIS 8 (ANOKHIN)","OBJECT_ID":"2023-091AD","EPOCH":"2026-03-09T23:44:40.058592","MEAN_MOTION":15.29359179,"ECCENTRICITY":0.0012509,"INCLINATION":97.5169,"RA_OF_ASC_NODE":133.2823,"ARG_OF_PERICENTER":92.0171,"MEAN_ANOMALY":268.2501,"EPHEMERIS_TYPE":0,"CLASSIFICATION_TYPE":"U","NORAD_CAT_ID":57193,"ELEMENT_SET_NO":999,"REV_AT_EPOCH":14927,"BSTAR":0.00064982524,"MEAN_MOTION_DOT":0.00018494,"MEAN_MOTION_DDOT":0},{"OBJECT_NAME":"STARLINK-31284","OBJECT_ID":"2024-049R","EPOCH":"2026-03-09T04:56:21.600384","MEAN_MOTION":15.27573933,"ECCENTRICITY":9.172e-5,"INCLINATION":43.0033,"RA_OF_ASC_NODE":146.134,"ARG_OF_PERICENTER":212.5513,"MEAN_ANOMALY":147.5282,"EPHEMERIS_TYPE":0,"CLASSIFICATION_TYPE":"U","NORAD_CAT_ID":59246,"ELEMENT_SET_NO":999,"REV_AT_EPOCH":11232,"BSTAR":-6.7171445e-5,"MEAN_MOTION_DOT":-2.109e-5,"MEAN_MOTION_DDOT":0}]
